0 ARABSAT 5A
1 36745U 10032B   13283.20943925  .00000137  00000-0  00000+0 0  6292
2 36745 000.0585 007.4556 0003664 182.8077 294.6345 01.00274621 12227
0 ARABSAT 5A
1 36745U 10032B   13287.80970314  .00000128  00000-0  00000+0 0  6306
2 36745 000.0576 355.4801 0003699 197.8892 152.1259 01.00270179 12265
0 ARABSAT 5A
1 36745U 10032B   13289.07737593  .00000129  00000-0  00000+0 0  6319
2 36745 000.0587 354.8499 0003698 198.8136 249.4365 01.00270787 12289
0 ARABSAT 5A
1 36745U 10032B   13292.14754722  .00000135  00000-0  00000+0 0  6322
2 36745 000.0604 000.7160 0003866 197.3587 273.3164 01.00272637 12315
0 ARABSAT 5A
1 36745U 10032B   13295.82145630  .00000141  00000-0  00000+0 0  6330
2 36745 000.0622 355.0853 0003993 215.7025 146.8654 01.00275388 12340
